#dP2024  8 15 18  0  0.00000000      96 __u+U IGS20 EXT  IAC
## 2327 410400.00000000   900.00000000 60537 0.7500000000000
+   53   G02G03G04G05G06G07G08G09G10G11G12G13G14G15G16G17G18
+        G19G20G21G22G23G24G25G26G27G28G29G30G31G32R01R02R03
+        R04R05R07R08R09R11R12R14R15R16R17R18R19R20R21R22R24
+        R25R26  0  0  0  0  0  0  0  0  0  0  0  0  0  0  0
+          0  0  0  0  0  0  0  0  0  0  0  0  0  0  0  0  0
++         0  0  0  0  0  0  0  0  0  0  0  0  0  0  0  0  0
++         0  0  0  0  0  0  0  0  0  0  0  0  0  0  0  0  0
++         0  0  0  0  0  0  0  0  0  0  0  0  0  0  0  0  0
++         0  0  0  0  0  0  0  0  0  0  0  0  0  0  0  0  0
++         0  0  0  0  0  0  0  0  0  0  0  0  0  0  0  0  0
%c M  cc GPS ccc cccc cccc cccc cccc ccccc ccccc ccccc ccccc
%c cc cc ccc ccc cccc cccc cccc cccc ccccc ccccc ccccc ccccc
%f  0.0000000  0.000000000  0.00000000000  0.000000000000000
%f  0.0000000  0.000000000  0.00000000000  0.000000000000000
%i    0    0    0    0      0      0      0      0         0
%i    0    0    0    0      0      0      0      0         0
/* IAC                                ULTRA-RAPID PREDICTION
/* S/V CLOCKS ARE ALIGNED TO GNSS TIME                      
/* G:C1WC2W R:C1PC2P E:C1XC5X C:C2IC6I J:C1CC2S             
/* PCV:IGS20_2317 OL/AL:FES2004  NONE     YN ORB:CoN CLK:CoN
*  2024 08 16  1  0  0.00000000
PG02 -18290.502432 -13440.386183 -13578.636159   -378.146408
PG03 -12542.593680 -20323.864808  11576.737394    501.559969
PG04 -11456.241930 -10002.390880  21797.318718    424.939855
PG05   4915.561847  25804.991920   3458.266414   -183.336410
PG06 -17635.739258   7206.186536  18615.329298     95.771099
PG07 -25930.031003  -6302.247928  -2052.500691    -51.227999
PG08  -1625.041443 -17999.693792 -19429.498076    317.085238
PG09 -19261.020713   1093.410122  18190.259757    315.846264
PG10  11836.292000 -10619.193354 -20997.378071    -95.182523
PG11  -3056.392899  14896.679595  21807.083263   -722.000811
PG12   9971.085675  22893.947526   8836.147001   -530.658426
PG13  -8377.348637  19368.146903 -16201.655350    671.028586
PG14 -14377.561918   6486.204468 -21305.749964    473.350330
PG15   4246.361707  17959.060563 -19557.539957    193.064449
PG16    910.201836 -25410.460260   6488.244787   -207.499766
PG17 -22266.852326  13188.881568  -5935.846718    653.634478
PG18  25799.361842   5739.941037  -3607.114976   -646.449133
PG19 -20066.881555  16917.325636   1956.037937    525.110428
PG20   -787.615616  22791.726988  13803.728644    371.644996
PG21 -13694.457119 -15035.048067 -17194.139227    103.467939
PG22 -10837.224752  15421.919465 -18415.392677    -51.673604
PG23  15616.274149   3401.384208 -21226.742054    298.219501
PG24  16070.685921  14968.624043 -15653.314745   -486.243572
PG25  15644.170709  13400.544511  16571.621441    499.306203
PG26   7496.370618 -18485.734109  17199.547160     99.679328
PG27   9080.188113 -21235.699044 -13019.833920    -33.058652
PG28  19412.054918  -6908.819675  16750.228222   -374.089622
PG29  17153.775131   3703.927177  19929.015547   -583.831735
PG30 -23551.803862   2272.780226 -12174.196684   -339.248368
PG31   8752.163203 -12993.691245  21265.321889   -225.815752
PG32  20998.685758 -15180.397225  -5113.816353   -605.466909
PR01  14386.890796 -14953.026852 -14848.305056     94.633930
PR02  10716.012026 -23071.246820   1348.424831    -24.160653
PR03    217.972374 -18914.803905  17122.073378    105.719940
PR04  -9682.430495  -4559.069065  23178.681984    250.132131
PR05 -14770.304278  12186.796064  16872.080787    136.157398
PR07     61.358302  18614.072037 -17431.977583     88.883099
PR08   9893.850284   4314.835780 -23056.247806     -6.352684
PR09   -281.639491  16147.916017 -19690.786291    203.633874
PR11  17034.496614  16338.176650   9662.119580     14.725739
PR12  12586.035276   -547.495273  22211.603385     43.683841
PR14 -11686.774541 -21835.722562   6174.795796     26.819660
PR15 -17079.765610 -15336.450384 -11109.836161     76.805145
PR16 -12574.150348    278.479518 -22182.464910     28.293437
PR17  -8126.206964  -9615.640146 -22168.690407    113.770635
PR18 -22101.917791  -4205.512320 -12044.089923    157.218171
PR19 -25321.062035   1748.099062   2464.931570   -287.723466
PR20 -12552.597847   9306.278813  20178.173123   -117.710158
PR21   7512.716168   9710.867802  22363.261443   -126.316184
PR22  22604.704819   4461.889176  10965.488514     68.596301
PR24  11561.702506 -10373.424381 -20226.028394    -68.001980
PR25   8203.523135  10150.598362  21926.034888   -100.463622
PR26   9233.811760   5691.302485 -23069.897211      9.848945
*  2024 08 16  1 15  0.00000000
PG02 -16551.359705 -13302.852964 -15679.176478   -378.139515
PG03 -12693.449754 -21519.042519   9014.705705    501.573412
PG04  -9633.922982 -11700.375205  21821.229133    424.946552
PG05   4524.448869  25323.441557   6268.830662   -183.337452
PG06 -19542.822638   6566.074707  16868.698584     95.749120
PG07 -25990.632550  -6578.027413    754.831170    -51.222699
PG08    -54.343589 -19456.914894 -17994.870738    317.098299
PG09 -17853.858125   -572.421600  19584.201101    315.860341
PG10  12534.566578  -8233.034409 -21675.261165    -95.192501
PG11  -5429.661207  14144.288717  21840.630472   -722.005770
PG12   9907.585956  23814.055153   6157.732262   -530.661061
PG13  -9842.307595  20257.296450 -14107.364899    671.030608
PG14 -14990.487712   4098.725815 -21495.111411    473.358182
PG15   2897.721222  19546.638899 -18181.749979    193.068410
PG16   1348.701041 -24525.419015   9173.883479   -207.490439
PG17 -21753.039896  12442.567439  -8631.207978    653.625908
PG18  25984.340071   5999.532512   -751.009327   -646.451924
PG19 -20296.240286  16755.846082   -936.632715    525.115074
PG20  -1677.136735  21349.749826  15870.425445    371.644691
PG21 -11608.601467 -14780.996571 -18743.236681    103.467364
PG22 -11337.525452  13221.262746 -19722.535417    -51.677330
PG23  16239.314449   5688.437020 -20267.513220    298.227298
PG24  14252.166235  14851.751768 -17436.342179   -486.244156
PG25  15970.178341  15216.362563  14641.856452    499.306393
PG26   8399.764125 -16575.538257  18686.704969     99.672443
PG27  10176.022472 -22017.095788 -10599.452010    -33.059094
PG28  21131.519634  -6329.807219  14784.265841   -374.103021
PG29  15428.515310   5289.802750  20941.811292   -583.829673
PG30 -24713.697956   1688.669405  -9782.873911   -339.242234
PG31  11082.747728 -12267.260434  20641.332288   -225.815399
PG32  20642.839266 -14449.652189  -7854.132163   -605.464368
PR01  13542.192995 -13166.137927 -17155.103646     94.635115
PR02  10547.494812 -23106.161582  -1879.795175    -24.160828
PR03    905.907720 -20758.620287  14794.953271    105.720810
PR04  -8515.302696  -7152.453541  22979.297187    250.133842
PR05 -13745.334284  10228.180038  18914.153873    136.157964
PR07   -648.862836  20505.035905 -15158.912658     88.883906
PR08   8746.657410   6923.261685 -22887.152693     -6.352753
PR09  -1811.232993  14140.859678 -21107.725943    203.635863
PR11  17745.012677  17062.287595   6659.426903     14.724689
PR12  14209.168468   1570.438093  21158.241357     43.684276
PR14 -11206.895573 -21014.934596   9184.861850     26.819705
PR15 -17883.281201 -16228.532603  -8206.137383     76.804704
PR16 -14215.700990  -1832.274451 -21094.493434     28.293776
PR17  -5350.645969  -9857.415196 -22898.103859    113.773504
PR18 -20440.708830  -4183.770921 -14688.496830    157.219861
PR19 -25412.499606   1973.317049   -779.656975   -287.724702
PR20 -14921.484844   9565.382639  18364.598552   -117.710582
PR21   4717.550864   9928.541462  23019.223954   -126.318979
PR22  21082.811900   4434.459666  13679.035327     68.589355
PR24  13932.411832 -10700.891525 -18490.379614    -68.003352
PR25   5454.488201  10287.702627  22702.355556   -100.464344
PR26   8119.207109   8291.739996 -22696.668770      9.850772
EOF
